CSS (TIANHE)            
1 48274U 21035A   24040.77430432  .00033521  00000+0  35519-3 0  9995
2 48274  41.4685 147.7397 0007776 335.1868  24.8597 15.63379695158995
